KUIPER-00008            
1 63724U 25088A   25243.94252420  .00008132  00000+0  68535-3 0  9992
2 63724  51.8891 232.0930 0010748 176.8181 183.2859 14.98924752 19598
KUIPER-00009            
1 63725U 25088B   25243.91668981  .00029628  00000+0  39004-2 0  9994
2 63725  51.9009 225.7764 0012438 192.5934 313.7347 14.79862637  4996
KUIPER-00010            
1 63726U 25088C   25243.19856169  .00027037  00000+0  74419-3 0  9994
2 63726  51.8628 218.6810 0008515 189.3514 170.7315 15.36938846 19335
KUIPER-00011            
1 63727U 25088D   25243.91668981  .00048147  00000+0  20276-2 0  9994
2 63727  51.8649 216.1905 0009267 193.0157 353.2175 15.22848331  5125
KUIPER-00012            
1 63728U 25088E   25243.94638306  .00029265  00000+0  80978-3 0  9992
2 63728  51.8544 215.3349 0009694 202.7818 157.2739 15.36720752 19538
KUIPER-00013            
1 63729U 25088F   25243.95403184 -.00053175  00000+0 -70940-2 0  9994
2 63729  51.9015 227.0599 0008285 132.4479 227.7185 14.79351660 19472
KUIPER-00014            
1 63730U 25088G   25243.68423609  .00002732  00000+0  38796-3 0  9995
2 63730  51.9011 229.2366 0008129 180.3305 179.7653 14.79851060 19232
KUIPER-00015            
1 63731U 25088H   25243.70242182  .00001127  00000+0  17191-3 0  9997
2 63731  51.8985 241.3474 0010483 168.2389 191.8821 14.81229119 19521
