<?xml version="1.0" encoding="UTF-8"?>
<ndm xmlns:xsi="http://www.w3.org/2001/XMLSchema-instance" xsi:noNamespaceSchemaLocation="https://sanaregistry.org/r/ndmxml_unqualified/ndmxml-2.0.0-master-2.0.xsd">
<omm id="CCSDS_OMM_VERS" version="2.0">
<header><CREATION_DATE/><ORIGINATOR/></header><body><segment><metadata><OBJECT_NAME>KUIPER-00008</OBJECT_NAME><OBJECT_ID>2025-088A</OBJECT_ID><CENTER_NAME>EARTH</CENTER_NAME><REF_FRAME>TEME</REF_FRAME><TIME_SYSTEM>UTC</TIME_SYSTEM><MEAN_ELEMENT_THEORY>SGP4</MEAN_ELEMENT_THEORY></metadata><data><meanElements><EPOCH>2025-08-31T22:37:14.090880</EPOCH><MEAN_MOTION>14.98924752</MEAN_MOTION><ECCENTRICITY>.00107483</ECCENTRICITY><INCLINATION>51.8891</INCLINATION><RA_OF_ASC_NODE>232.0930</RA_OF_ASC_NODE><ARG_OF_PERICENTER>176.8181</ARG_OF_PERICENTER><MEAN_ANOMALY>183.2859</MEAN_ANOMALY></meanElements><tleParameters><EPHEMERIS_TYPE>0</EPHEMERIS_TYPE><CLASSIFICATION_TYPE>U</CLASSIFICATION_TYPE><NORAD_CAT_ID>63724</NORAD_CAT_ID><ELEMENT_SET_NO>999</ELEMENT_SET_NO><REV_AT_EPOCH>1959</REV_AT_EPOCH><BSTAR>.68534759E-3</BSTAR><MEAN_MOTION_DOT>.8132E-4</MEAN_MOTION_DOT><MEAN_MOTION_DDOT>0</MEAN_MOTION_DDOT></tleParameters></data></segment></body></omm>
<omm id="CCSDS_OMM_VERS" version="2.0">
<header><CREATION_DATE/><ORIGINATOR/></header><body><segment><metadata><OBJECT_NAME>KUIPER-00009</OBJECT_NAME><OBJECT_ID>2025-088B</OBJECT_ID><CENTER_NAME>EARTH</CENTER_NAME><REF_FRAME>TEME</REF_FRAME><TIME_SYSTEM>UTC</TIME_SYSTEM><MEAN_ELEMENT_THEORY>SGP4</MEAN_ELEMENT_THEORY></metadata><data><meanElements><EPOCH>2025-08-31T22:00:01.999584</EPOCH><MEAN_MOTION>14.79862637</MEAN_MOTION><ECCENTRICITY>.00124385</ECCENTRICITY><INCLINATION>51.9009</INCLINATION><RA_OF_ASC_NODE>225.7764</RA_OF_ASC_NODE><ARG_OF_PERICENTER>192.5934</ARG_OF_PERICENTER><MEAN_ANOMALY>313.7347</MEAN_ANOMALY></meanElements><tleParameters><EPHEMERIS_TYPE>0</EPHEMERIS_TYPE><CLASSIFICATION_TYPE>U</CLASSIFICATION_TYPE><NORAD_CAT_ID>63725</NORAD_CAT_ID><ELEMENT_SET_NO>999</ELEMENT_SET_NO><REV_AT_EPOCH>499</REV_AT_EPOCH><BSTAR>.39003671E-2</BSTAR><MEAN_MOTION_DOT>.29628E-3</MEAN_MOTION_DOT><MEAN_MOTION_DDOT>0</MEAN_MOTION_DDOT></tleParameters></data></segment></body></omm>
<omm id="CCSDS_OMM_VERS" version="2.0">
<header><CREATION_DATE/><ORIGINATOR/></header><body><segment><metadata><OBJECT_NAME>KUIPER-00010</OBJECT_NAME><OBJECT_ID>2025-088C</OBJECT_ID><CENTER_NAME>EARTH</CENTER_NAME><REF_FRAME>TEME</REF_FRAME><TIME_SYSTEM>UTC</TIME_SYSTEM><MEAN_ELEMENT_THEORY>SGP4</MEAN_ELEMENT_THEORY></metadata><data><meanElements><EPOCH>2025-08-31T04:45:55.730016</EPOCH><MEAN_MOTION>15.36938846</MEAN_MOTION><ECCENTRICITY>.00085155</ECCENTRICITY><INCLINATION>51.8628</INCLINATION><RA_OF_ASC_NODE>218.6810</RA_OF_ASC_NODE><ARG_OF_PERICENTER>189.3514</ARG_OF_PERICENTER><MEAN_ANOMALY>170.7315</MEAN_ANOMALY></meanElements><tleParameters><EPHEMERIS_TYPE>0</EPHEMERIS_TYPE><CLASSIFICATION_TYPE>U</CLASSIFICATION_TYPE><NORAD_CAT_ID>63726</NORAD_CAT_ID><ELEMENT_SET_NO>999</ELEMENT_SET_NO><REV_AT_EPOCH>1933</REV_AT_EPOCH><BSTAR>.74418742E-3</BSTAR><MEAN_MOTION_DOT>.27037E-3</MEAN_MOTION_DOT><MEAN_MOTION_DDOT>0</MEAN_MOTION_DDOT></tleParameters></data></segment></body></omm>
<omm id="CCSDS_OMM_VERS" version="2.0">
<header><CREATION_DATE/><ORIGINATOR/></header><body><segment><metadata><OBJECT_NAME>KUIPER-00011</OBJECT_NAME><OBJECT_ID>2025-088D</OBJECT_ID><CENTER_NAME>EARTH</CENTER_NAME><REF_FRAME>TEME</REF_FRAME><TIME_SYSTEM>UTC</TIME_SYSTEM><MEAN_ELEMENT_THEORY>SGP4</MEAN_ELEMENT_THEORY></metadata><data><meanElements><EPOCH>2025-08-31T22:00:01.999584</EPOCH><MEAN_MOTION>15.22848331</MEAN_MOTION><ECCENTRICITY>.00092676</ECCENTRICITY><INCLINATION>51.8649</INCLINATION><RA_OF_ASC_NODE>216.1905</RA_OF_ASC_NODE><ARG_OF_PERICENTER>193.0157</ARG_OF_PERICENTER><MEAN_ANOMALY>353.2175</MEAN_ANOMALY></meanElements><tleParameters><EPHEMERIS_TYPE>0</EPHEMERIS_TYPE><CLASSIFICATION_TYPE>U</CLASSIFICATION_TYPE><NORAD_CAT_ID>63727</NORAD_CAT_ID><ELEMENT_SET_NO>999</ELEMENT_SET_NO><REV_AT_EPOCH>512</REV_AT_EPOCH><BSTAR>.20275728E-2</BSTAR><MEAN_MOTION_DOT>.48147E-3</MEAN_MOTION_DOT><MEAN_MOTION_DDOT>0</MEAN_MOTION_DDOT></tleParameters></data></segment></body></omm>
<omm id="CCSDS_OMM_VERS" version="2.0">
<header><CREATION_DATE/><ORIGINATOR/></header><body><segment><metadata><OBJECT_NAME>KUIPER-00012</OBJECT_NAME><OBJECT_ID>2025-088E</OBJECT_ID><CENTER_NAME>EARTH</CENTER_NAME><REF_FRAME>TEME</REF_FRAME><TIME_SYSTEM>UTC</TIME_SYSTEM><MEAN_ELEMENT_THEORY>SGP4</MEAN_ELEMENT_THEORY></metadata><data><meanElements><EPOCH>2025-08-31T22:42:47.496384</EPOCH><MEAN_MOTION>15.36720752</MEAN_MOTION><ECCENTRICITY>.00096941</ECCENTRICITY><INCLINATION>51.8544</INCLINATION><RA_OF_ASC_NODE>215.3349</RA_OF_ASC_NODE><ARG_OF_PERICENTER>202.7818</ARG_OF_PERICENTER><MEAN_ANOMALY>157.2739</MEAN_ANOMALY></meanElements><tleParameters><EPHEMERIS_TYPE>0</EPHEMERIS_TYPE><CLASSIFICATION_TYPE>U</CLASSIFICATION_TYPE><NORAD_CAT_ID>63728</NORAD_CAT_ID><ELEMENT_SET_NO>999</ELEMENT_SET_NO><REV_AT_EPOCH>1953</REV_AT_EPOCH><BSTAR>.80978073E-3</BSTAR><MEAN_MOTION_DOT>.29265E-3</MEAN_MOTION_DOT><MEAN_MOTION_DDOT>0</MEAN_MOTION_DDOT></tleParameters></data></segment></body></omm>
<omm id="CCSDS_OMM_VERS" version="2.0">
<header><CREATION_DATE/><ORIGINATOR/></header><body><segment><metadata><OBJECT_NAME>KUIPER-00013</OBJECT_NAME><OBJECT_ID>2025-088F</OBJECT_ID><CENTER_NAME>EARTH</CENTER_NAME><REF_FRAME>TEME</REF_FRAME><TIME_SYSTEM>UTC</TIME_SYSTEM><MEAN_ELEMENT_THEORY>SGP4</MEAN_ELEMENT_THEORY></metadata><data><meanElements><EPOCH>2025-08-31T22:53:48.350976</EPOCH><MEAN_MOTION>14.79351660</MEAN_MOTION><ECCENTRICITY>.00082853</ECCENTRICITY><INCLINATION>51.9015</INCLINATION><RA_OF_ASC_NODE>227.0599</RA_OF_ASC_NODE><ARG_OF_PERICENTER>132.4479</ARG_OF_PERICENTER><MEAN_ANOMALY>227.7185</MEAN_ANOMALY></meanElements><tleParameters><EPHEMERIS_TYPE>0</EPHEMERIS_TYPE><CLASSIFICATION_TYPE>U</CLASSIFICATION_TYPE><NORAD_CAT_ID>63729</NORAD_CAT_ID><ELEMENT_SET_NO>999</ELEMENT_SET_NO><REV_AT_EPOCH>1947</REV_AT_EPOCH><BSTAR>-.70940378E-2</BSTAR><MEAN_MOTION_DOT>-.53175E-3</MEAN_MOTION_DOT><MEAN_MOTION_DDOT>0</MEAN_MOTION_DDOT></tleParameters></data></segment></body></omm>
<omm id="CCSDS_OMM_VERS" version="2.0">
<header><CREATION_DATE/><ORIGINATOR/></header><body><segment><metadata><OBJECT_NAME>KUIPER-00014</OBJECT_NAME><OBJECT_ID>2025-088G</OBJECT_ID><CENTER_NAME>EARTH</CENTER_NAME><REF_FRAME>TEME</REF_FRAME><TIME_SYSTEM>UTC</TIME_SYSTEM><MEAN_ELEMENT_THEORY>SGP4</MEAN_ELEMENT_THEORY></metadata><data><meanElements><EPOCH>2025-08-31T16:25:17.998176</EPOCH><MEAN_MOTION>14.79851060</MEAN_MOTION><ECCENTRICITY>.00081298</ECCENTRICITY><INCLINATION>51.9011</INCLINATION><RA_OF_ASC_NODE>229.2366</RA_OF_ASC_NODE><ARG_OF_PERICENTER>180.3305</ARG_OF_PERICENTER><MEAN_ANOMALY>179.7653</MEAN_ANOMALY></meanElements><tleParameters><EPHEMERIS_TYPE>0</EPHEMERIS_TYPE><CLASSIFICATION_TYPE>U</CLASSIFICATION_TYPE><NORAD_CAT_ID>63730</NORAD_CAT_ID><ELEMENT_SET_NO>999</ELEMENT_SET_NO><REV_AT_EPOCH>1923</REV_AT_EPOCH><BSTAR>.38795772E-3</BSTAR><MEAN_MOTION_DOT>.2732E-4</MEAN_MOTION_DOT><MEAN_MOTION_DDOT>0</MEAN_MOTION_DDOT></tleParameters></data></segment></body></omm>
<omm id="CCSDS_OMM_VERS" version="2.0">
<header><CREATION_DATE/><ORIGINATOR/></header><body><segment><metadata><OBJECT_NAME>KUIPER-00015</OBJECT_NAME><OBJECT_ID>2025-088H</OBJECT_ID><CENTER_NAME>EARTH</CENTER_NAME><REF_FRAME>TEME</REF_FRAME><TIME_SYSTEM>UTC</TIME_SYSTEM><MEAN_ELEMENT_THEORY>SGP4</MEAN_ELEMENT_THEORY></metadata><data><meanElements><EPOCH>2025-08-31T16:51:29.245248</EPOCH><MEAN_MOTION>14.81229119</MEAN_MOTION><ECCENTRICITY>.00104838</ECCENTRICITY><INCLINATION>51.8985</INCLINATION><RA_OF_ASC_NODE>241.3474</RA_OF_ASC_NODE><ARG_OF_PERICENTER>168.2389</ARG_OF_PERICENTER><MEAN_ANOMALY>191.8821</MEAN_ANOMALY></meanElements><tleParameters><EPHEMERIS_TYPE>0</EPHEMERIS_TYPE><CLASSIFICATION_TYPE>U</CLASSIFICATION_TYPE><NORAD_CAT_ID>63731</NORAD_CAT_ID><ELEMENT_SET_NO>999</ELEMENT_SET_NO><REV_AT_EPOCH>1952</REV_AT_EPOCH><BSTAR>.17190804E-3</BSTAR><MEAN_MOTION_DOT>.1127E-4</MEAN_MOTION_DOT><MEAN_MOTION_DDOT>0</MEAN_MOTION_DDOT></tleParameters></data></segment></body></omm>

</ndm>
